OBJECT_NAME,OBJECT_ID,EPOCH,MEAN_MOTION,ECCENTRICITY,INCLINATION,RA_OF_ASC_NODE,ARG_OF_PERICENTER,MEAN_ANOMALY,EPHEMERIS_TYPE,CLASSIFICATION_TYPE,NORAD_CAT_ID,ELEMENT_SET_NO,REV_AT_EPOCH,BSTAR,MEAN_MOTION_DOT,MEAN_MOTION_DDOT
STAR ONE D2,2021-069A,2026-06-07T07:57:32.984064,1.00269082,.0001809,0.0130,339.5261,120.3612,205.1400,0,U,49055,999,1784,0,0,0
EUTELSAT QUANTUM,2021-069B,2026-06-07T05:05:56.257152,1.00271928,.0002412,0.0102,340.9060,91.7636,307.1349,0,U,49056,999,1782,0,.14E-5,0
ZHONGXING-2E,2021-071A,2026-06-07T10:28:16.673376,1.00274549,.00018,0.0466,243.6551,236.0587,31.2451,0,U,49062,999,1794,0,-.277E-5,0
TJS-7,2021-077A,2026-06-07T11:14:39.181056,1.00271295,.0002506,0.4831,86.1890,334.5550,264.3386,0,U,49115,999,945,0,-.109E-5,0
CHINASAT 9B,2021-080A,2026-06-07T12:11:57.016320,1.00273805,.0001573,0.0263,81.8373,18.0431,80.4346,0,U,49125,999,1755,0,-.298E-5,0
SHIJIAN-21 (SJ-21),2021-094A,2026-06-07T18:08:28.781088,1.00276038,.0049529,5.0898,61.2351,168.0080,67.0219,0,U,49330,999,526,0,-.333E-5,0
SES-17,2021-095A,2026-06-07T07:58:32.887776,1.00273561,.0001088,0.0244,33.5492,67.3596,207.3709,0,U,49332,999,1775,0,-.258E-5,0
SYRACUSE 4A,2021-095B,2026-06-07T06:47:51.407232,1.00270897,.0001345,0.0167,338.3767,95.3931,329.3863,0,U,49333,999,1784,0,.149E-5,0
QZS-1R (MICHIBIKI-1R),2021-096A,2026-06-06T15:47:00.831264,1.00259679,.0754231,37.4401,79.7406,271.5748,275.1259,0,U,49336,999,1690,0,-.234E-5,0
ZHONGXING-1D,2021-114A,2026-06-07T08:54:46.151136,1.00274723,.0000125,0.0413,245.8442,320.0414,313.7634,0,U,49505,999,1672,0,-.321E-5,0
STPSAT-6,2021-118A,2026-06-07T11:11:09.515040,1.00273560,.0001425,0.2947,85.5139,258.7357,327.7207,0,U,49817,999,1647,0,-.31E-6,0
EXPRESS AMU-7,2021-123A,2026-06-07T17:32:19.913856,1.00272972,.0000618,0.0173,281.0841,72.5962,310.5346,0,U,50001,999,1644,0,-.227E-5,0
EXPRESS AMU-3,2021-123B,2026-06-06T00:10:43.305024,1.00270112,.0000425,0.0231,311.6887,355.6601,52.6473,0,U,50002,999,692,0,0,0
TIANLIAN 2-02,2021-124A,2026-06-07T13:09:38.530368,1.00272745,.0001146,0.7759,86.2739,221.9266,316.1404,0,U,50005,999,1652,0,.1E-7,0
TURKSAT 5B,2021-126A,2026-06-07T10:12:12.838176,1.00271386,.0003756,0.0685,339.5286,18.2742,93.0890,0,U,50212,999,1620,0,.16E-5,0
INMARSAT 6-F1,2021-128A,2026-06-07T10:24:09.566784,1.00271525,.0000137,0.0128,290.5512,218.3765,346.7089,0,U,50319,999,1616,0,-.157E-5,0
SHIYAN-12 01 (SY-12 01),2021-129A,2026-06-07T17:22:47.443008,1.00038133,.0003439,3.6491,80.0377,288.5229,216.2946,0,U,50321,999,1640,0,.4E-6,0
SHIYAN-12 02 (SY-12 02),2021-129B,2026-06-07T17:23:12.122304,1.00491873,.0002688,3.6488,80.0444,53.7262,104.6008,0,U,50322,999,1640,0,-.183E-5,0
TJS-9,2021-135A,2026-06-07T12:36:38.496384,1.00272484,.0004837,0.0600,255.9405,152.2834,174.0790,0,U,50574,999,1633,0,-.284E-5,0
USA 324,2022-006A,2026-06-06T02:06:38.886912,1.00289779,.000284,0.7690,83.2777,165.6787,110.1567,0,U,51280,999,1602,0,-.58E-6,0
GOES 18,2022-021A,2026-06-07T11:03:55.209024,1.00272290,.0000573,0.0399,139.4951,356.1193,149.2331,0,U,51850,999,649,0,.111E-5,0
ZHONGXING-6D,2022-038A,2026-06-06T22:38:18.336192,1.00270016,.0000232,0.0388,94.7476,263.1623,2.0971,0,U,52255,999,1532,0,-.34E-5,0
NILESAT 301,2022-061A,2026-06-07T09:58:21.664992,1.00272013,.0005515,0.0559,26.4232,17.2325,354.7531,0,U,52817,999,1463,0,-.43E-6,0
CMS-02 (GSAT-24),2022-067A,2026-06-07T10:24:02.080224,1.00271297,.0001813,0.0248,97.6972,275.6098,121.5489,0,U,52903,999,1451,0,-.15E-5,0
MEASAT 3D,2022-067B,2026-06-07T12:21:38.812320,1.00270275,.0001206,0.0282,1.9859,34.5337,136.3123,0,U,52904,999,1455,0,-.227E-5,0
SES-22,2022-071A,2026-06-07T11:03:17.769312,1.00273611,.000123,0.0278,285.1694,143.7170,213.8115,0,U,52933,999,742,0,.119E-5,0
WFOV (USA 332),2022-073A,2026-06-07T07:09:01.494144,1.00272575,.0002146,3.6846,78.6538,245.7033,157.8652,0,U,52940,999,1427,0,-.348E-5,0
TIANLIAN 2-03,2022-078A,2026-06-07T08:20:38.272416,1.00271971,.0001592,0.6473,76.8309,317.4392,357.2308,0,U,53100,999,1444,0,.86E-6,0
SBIRS GEO-6 (USA 336),2022-092A,2026-06-07T10:39:38.084256,1.00271449,.0002066,3.2751,317.3177,116.7797,120.6749,0,U,53355,999,1413,0,-.28E-5,0
EUTELSAT KONNECT VHTS,2022-110A,2026-06-07T06:35:45.065760,1.00269845,.0002765,0.0645,103.4366,318.7007,295.1967,0,U,53765,999,673,0,.31E-6,0
ZHONGXING-1E,2022-112A,2026-06-07T12:06:12.567168,1.00270789,.0000285,0.0440,107.5610,246.9200,164.3904,0,U,53813,999,1375,0,-.135E-5,0
SES-20,2022-123A,2026-06-07T11:16:38.235936,1.00269904,.0002049,0.0381,80.2305,15.0776,226.6269,0,U,53960,999,1343,0,-.86E-6,0
