STAR ONE D2             
1 49055U 21069A   26158.33163176  .00000000  00000+0  00000+0 0  9991
2 49055   0.0130 339.5261 0001809 120.3612 205.1400  1.00269082 17841
EUTELSAT QUANTUM        
1 49056U 21069B   26158.21245668  .00000140  00000+0  00000+0 0  9991
2 49056   0.0102 340.9060 0002412  91.7636 307.1349  1.00271928 17827
ZHONGXING-2E            
1 49062U 21071A   26158.43630409 -.00000277  00000+0  00000+0 0  9998
2 49062   0.0466 243.6551 0001800 236.0587  31.2451  1.00274549 17944
TJS-7                   
1 49115U 21077A   26158.46850904 -.00000109  00000+0  00000+0 0  9994
2 49115   0.4831  86.1890 0002506 334.5550 264.3386  1.00271295  9455
CHINASAT 9B             
1 49125U 21080A   26158.50829880 -.00000298  00000+0  00000+0 0  9992
2 49125   0.0263  81.8373 0001573  18.0431  80.4346  1.00273805 17556
SHIJIAN-21 (SJ-21)      
1 49330U 21094A   26158.75588867 -.00000333  00000+0  00000+0 0  9999
2 49330   5.0898  61.2351 0049529 168.0080  67.0219  1.00276038  5266
SES-17                  
1 49332U 21095A   26158.33232509 -.00000258  00000+0  00000+0 0  9991
2 49332   0.0244  33.5492 0001088  67.3596 207.3709  1.00273561 17755
SYRACUSE 4A             
1 49333U 21095B   26158.28323388  .00000149  00000+0  00000+0 0  9990
2 49333   0.0167 338.3767 0001345  95.3931 329.3863  1.00270897 17846
QZS-1R (MICHIBIKI-1R)   
1 49336U 21096A   26157.65764851 -.00000234  00000+0  00000+0 0  9994
2 49336  37.4401  79.7406 0754231 271.5748 275.1259  1.00259679 16901
ZHONGXING-1D            
1 49505U 21114A   26158.37136749 -.00000321  00000+0  00000+0 0  9999
2 49505   0.0413 245.8442 0000125 320.0414 313.7634  1.00274723 16723
STPSAT-6                
1 49817U 21118A   26158.46608235 -.00000031  00000+0  00000+0 0  9991
2 49817   0.2947  85.5139 0001425 258.7357 327.7207  1.00273560 16473
EXPRESS AMU-7           
1 50001U 21123A   26158.73078604 -.00000227  00000+0  00000+0 0  9992
2 50001   0.0173 281.0841 0000618  72.5962 310.5346  1.00272972 16446
EXPRESS AMU-3           
1 50002U 21123B   26157.00744566  .00000000  00000+0  00000+0 0  9997
2 50002   0.0231 311.6887 0000425 355.6601  52.6473  1.00270112  6924
TIANLIAN 2-02           
1 50005U 21124A   26158.54836262  .00000001  00000+0  00000+0 0  9997
2 50005   0.7759  86.2739 0001146 221.9266 316.1404  1.00272745 16526
TURKSAT 5B              
1 50212U 21126A   26158.42514859  .00000160  00000+0  00000+0 0  9997
2 50212   0.0685 339.5286 0003756  18.2742  93.0890  1.00271386 16208
INMARSAT 6-F1           
1 50319U 21128A   26158.43344406 -.00000157  00000+0  00000+0 0  9994
2 50319   0.0128 290.5512 0000137 218.3765 346.7089  1.00271525 16162
SHIYAN-12 01 (SY-12 01) 
1 50321U 21129A   26158.72416022  .00000040  00000+0  00000+0 0  9994
2 50321   3.6491  80.0377 0003439 288.5229 216.2946  1.00038133 16406
SHIYAN-12 02 (SY-12 02) 
1 50322U 21129B   26158.72444586 -.00000183  00000+0  00000+0 0  9990
2 50322   3.6488  80.0444 0002688  53.7262 104.6008  1.00491873 16405
TJS-9                   
1 50574U 21135A   26158.52544556 -.00000284  00000+0  00000+0 0  9994
2 50574   0.0600 255.9405 0004837 152.2834 174.0790  1.00272484 16335
USA 324                 
1 51280U 22006A   26157.08795008 -.00000058  00000+0  00000+0 0  9996
2 51280   0.7690  83.2777 0002840 165.6787 110.1567  1.00289779 16021
GOES 18                 
1 51850U 22021A   26158.46105566  .00000111  00000+0  00000+0 0  9992
2 51850   0.0399 139.4951 0000573 356.1193 149.2331  1.00272290  6492
ZHONGXING-6D            
1 52255U 22038A   26157.94326778 -.00000340  00000+0  00000+0 0  9997
2 52255   0.0388  94.7476 0000232 263.1623   2.0971  1.00270016 15324
NILESAT 301             
1 52817U 22061A   26158.41552853 -.00000043  00000+0  00000+0 0  9995
2 52817   0.0559  26.4232 0005515  17.2325 354.7531  1.00272013 14637
CMS-02 (GSAT-24)        
1 52903U 22067A   26158.43335741 -.00000150  00000+0  00000+0 0  9993
2 52903   0.0248  97.6972 0001813 275.6098 121.5489  1.00271297 14515
MEASAT 3D               
1 52904U 22067B   26158.51503255 -.00000227  00000+0  00000+0 0  9995
2 52904   0.0282   1.9859 0001206  34.5337 136.3123  1.00270275 14558
SES-22                  
1 52933U 22071A   26158.46062233  .00000119  00000+0  00000+0 0  9991
2 52933   0.0278 285.1694 0001230 143.7170 213.8115  1.00273611  7420
WFOV (USA 332)          
1 52940U 22073A   26158.29793396 -.00000348  00000+0  00000+0 0  9998
2 52940   3.6846  78.6538 0002146 245.7033 157.8652  1.00272575 14270
TIANLIAN 2-03           
1 53100U 22078A   26158.34766519  .00000086  00000+0  00000+0 0  9993
2 53100   0.6473  76.8309 0001592 317.4392 357.2308  1.00271971 14449
SBIRS GEO-6 (USA 336)   
1 53355U 22092A   26158.44419079 -.00000280  00000+0  00000+0 0  9995
2 53355   3.2751 317.3177 0002066 116.7797 120.6749  1.00271449 14138
EUTELSAT KONNECT VHTS   
1 53765U 22110A   26158.27482715  .00000031  00000+0  00000+0 0  9992
2 53765   0.0645 103.4366 0002765 318.7007 295.1967  1.00269845  6732
ZHONGXING-1E            
1 53813U 22112A   26158.50431212 -.00000135  00000+0  00000+0 0  9996
2 53813   0.0440 107.5610 0000285 246.9200 164.3904  1.00270789 13755
SES-20                  
1 53960U 22123A   26158.46988699 -.00000086  00000+0  00000+0 0  9997
2 53960   0.0381  80.2305 0002049  15.0776 226.6269  1.00269904 13431
